{
  "type": "FeatureCollection",
  "features": [
    {
      "type": "Feature",
      "properties": {
        "norad_id": 58701,
        "name": "TIANMU-1 16",
        "group": "weather",
        "lat": -70.6751125179104,
        "lon": -155.8811381358984,
        "alt_km": 497.57390240392306,
        "timestamp": "2025-12-27T09:28:56.110120+00:00",
        "meta_object_name": "TIANMU-1 16",
        "meta_object_id": "2024-004B",
        "meta_epoch": "2025-12-27T05:04:21.802080",
        "meta_mean_motion": 15.24631037,
        "meta_eccentricity": 0.0004482,
        "meta_inclination": 97.4571,
        "meta_ra_of_asc_node": 182.0039,
        "meta_arg_of_pericenter": 230.2415,
        "meta_mean_anomaly": 129.8428,
        "meta_ephemeris_type": 0,
        "meta_classification_type": "U",
        "meta_norad_cat_id": 58701,
        "meta_element_set_no": 999,
        "meta_rev_at_epoch": 10955,
        "meta_bstar": 0.00034127,
        "meta_mean_motion_dot": 8.355e-05,
        "meta_mean_motion_ddot": 0,
        "tle_line1": "1 58701U 24004B   25361.21136345  .00008355  00000+0  34127-3 0  9993",
        "tle_line2": "2 58701  97.4571 182.0039 0004482 230.2415 129.8428 15.24631037109550"
      },
      "geometry": {
        "type": "Point",
        "coordinates": [
          -155.8811381358984,
          -70.6751125179104
        ]
      }
    },
    {
      "type": "Feature",
      "properties": {
        "norad_id": 58702,
        "name": "TIANMU-1 17",
        "group": "weather",
        "lat": 14.451577245367718,
        "lon": -179.33092465997953,
        "alt_km": 494.8415220640236,
        "timestamp": "2025-12-27T09:28:56.110130+00:00",
        "meta_object_name": "TIANMU-1 17",
        "meta_object_id": "2024-004C",
        "meta_epoch": "2025-12-27T04:41:35.242656",
        "meta_mean_motion": 15.24674023,
        "meta_eccentricity": 0.0003662,
        "meta_inclination": 97.4605,
        "meta_ra_of_asc_node": 182.4057,
        "meta_arg_of_pericenter": 230.487,
        "meta_mean_anomaly": 129.6044,
        "meta_ephemeris_type": 0,
        "meta_classification_type": "U",
        "meta_norad_cat_id": 58702,
        "meta_element_set_no": 999,
        "meta_rev_at_epoch": 10954,
        "meta_bstar": 0.0003589,
        "meta_mean_motion_dot": 8.801e-05,
        "meta_mean_motion_ddot": 0,
        "tle_line1": "1 58702U 24004C   25361.19554679  .00008801  00000+0  35890-3 0  9999",
        "tle_line2": "2 58702  97.4605 182.4057 0003662 230.4870 129.6044 15.24674023109542"
      },
      "geometry": {
        "type": "Point",
        "coordinates": [
          -179.33092465997953,
          14.451577245367718
        ]
      }
    },
    {
      "type": "Feature",
      "properties": {
        "norad_id": 58703,
        "name": "TIANMU-1 18",
        "group": "weather",
        "lat": 72.93719601029812,
        "lon": 28.08345949094995,
        "alt_km": 485.89439354508886,
        "timestamp": "2025-12-27T09:28:56.110140+00:00",
        "meta_object_name": "TIANMU-1 18",
        "meta_object_id": "2024-004D",
        "meta_epoch": "2025-12-27T04:17:46.245408",
        "meta_mean_motion": 15.24655989,
        "meta_eccentricity": 0.0003058,
        "meta_inclination": 97.4623,
        "meta_ra_of_asc_node": 182.5876,
        "meta_arg_of_pericenter": 226.6807,
        "meta_mean_anomaly": 133.4176,
        "meta_ephemeris_type": 0,
        "meta_classification_type": "U",
        "meta_norad_cat_id": 58703,
        "meta_element_set_no": 999,
        "meta_rev_at_epoch": 10954,
        "meta_bstar": 0.00034102,
        "meta_mean_motion_dot": 8.354e-05,
        "meta_mean_motion_ddot": 0,
        "tle_line1": "1 58703U 24004D   25361.17900747  .00008354  00000+0  34102-3 0  9997",
        "tle_line2": "2 58703  97.4623 182.5876 0003058 226.6807 133.4176 15.24655989109548"
      },
      "geometry": {
        "type": "Point",
        "coordinates": [
          28.08345949094995,
          72.93719601029812
        ]
      }
    },
    {
      "type": "Feature",
      "properties": {
        "norad_id": 58990,
        "name": "INSAT-3DS",
        "group": "weather",
        "lat": -0.054970880286048386,
        "lon": -39.53122047664038,
        "alt_km": 35782.18674754031,
        "timestamp": "2025-12-27T09:28:56.110151+00:00",
        "meta_object_name": "INSAT-3DS",
        "meta_object_id": "2024-033A",
        "meta_epoch": "2025-12-27T03:07:12.484704",
        "meta_mean_motion": 1.00270739,
        "meta_eccentricity": 0.0001375,
        "meta_inclination": 0.0646,
        "meta_ra_of_asc_node": 98.7441,
        "meta_arg_of_pericenter": 178.0436,
        "meta_mean_anomaly": 307.9854,
        "meta_ephemeris_type": 0,
        "meta_classification_type": "U",
        "meta_norad_cat_id": 58990,
        "meta_element_set_no": 999,
        "meta_rev_at_epoch": 4534,
        "meta_bstar": 0,
        "meta_mean_motion_dot": -1.34e-06,
        "meta_mean_motion_ddot": 0,
        "tle_line1": "1 58990U 24033A   25361.13000561 -.00000134  00000+0  00000+0 0  9993",
        "tle_line2": "2 58990   0.0646  98.7441 0001375 178.0436 307.9854  1.00270739 45348"
      },
      "geometry": {
        "type": "Point",
        "coordinates": [
          -39.53122047664038,
          -0.054970880286048386
        ]
      }
    },
    {
      "type": "Feature",
      "properties": {
        "norad_id": 59051,
        "name": "METEOR-M2 4",
        "group": "weather",
        "lat": -59.36061738131779,
        "lon": -26.981149612569755,
        "alt_km": 819.9358003526067,
        "timestamp": "2025-12-27T09:28:56.110164+00:00",
        "meta_object_name": "METEOR-M2 4",
        "meta_object_id": "2024-039A",
        "meta_epoch": "2025-12-27T04:42:04.286880",
        "meta_mean_motion": 14.22403549,
        "meta_eccentricity": 0.0006308,
        "meta_inclination": 98.6787,
        "meta_ra_of_asc_node": 317.8795,
        "meta_arg_of_pericenter": 314.6028,
        "meta_mean_anomaly": 45.4634,
        "meta_ephemeris_type": 0,
        "meta_classification_type": "U",
        "meta_norad_cat_id": 59051,
        "meta_element_set_no": 999,
        "meta_rev_at_epoch": 9481,
        "meta_bstar": 4.3612e-05,
        "meta_mean_motion_dot": 5.3e-07,
        "meta_mean_motion_ddot": 0,
        "tle_line1": "1 59051U 24039A   25361.19588295  .00000053  00000+0  43612-4 0  9999",
        "tle_line2": "2 59051  98.6787 317.8795 0006308 314.6028  45.4634 14.22403549 94810"
      },
      "geometry": {
        "type": "Point",
        "coordinates": [
          -26.981149612569755,
          -59.36061738131779
        ]
      }
    },
    {
      "type": "Feature",
      "properties": {
        "norad_id": 60133,
        "name": "GOES 19",
        "group": "weather",
        "lat": 0.000726547774269279,
        "lon": 163.15369312371988,
        "alt_km": 35790.9911423649,
        "timestamp": "2025-12-27T09:28:56.110176+00:00",
        "meta_object_name": "GOES 19",
        "meta_object_id": "2024-119A",
        "meta_epoch": "2025-12-27T00:39:38.966976",
        "meta_mean_motion": 1.00269913,
        "meta_eccentricity": 0.0001146,
        "meta_inclination": 0.0131,
        "meta_ra_of_asc_node": 245.9199,
        "meta_arg_of_pericenter": 71.5721,
        "meta_mean_anomaly": 72.9936,
        "meta_ephemeris_type": 0,
        "meta_classification_type": "U",
        "meta_norad_cat_id": 60133,
        "meta_element_set_no": 999,
        "meta_rev_at_epoch": 523,
        "meta_bstar": 0,
        "meta_mean_motion_dot": -2.26e-06,
        "meta_mean_motion_ddot": 0,
        "tle_line1": "1 60133U 24119A   25361.02753434 -.00000226  00000+0  00000+0 0  9994",
        "tle_line2": "2 60133   0.0131 245.9199 0001146  71.5721  72.9936  1.00269913  5231"
      },
      "geometry": {
        "type": "Point",
        "coordinates": [
          163.15369312371988,
          0.000726547774269279
        ]
      }
    },
    {
      "type": "Feature",
      "properties": {
        "norad_id": 65815,
        "name": "FENGYUN 3H",
        "group": "weather",
        "lat": 46.18359926515476,
        "lon": -68.47104413747897,
        "alt_km": 821.2918021786236,
        "timestamp": "2025-12-27T09:28:56.110187+00:00",
        "meta_object_name": "FENGYUN 3H",
        "meta_object_id": "2025-219A",
        "meta_epoch": "2025-12-27T02:29:50.720928",
        "meta_mean_motion": 14.19908649,
        "meta_eccentricity": 8.81e-05,
        "meta_inclination": 98.6603,
        "meta_ra_of_asc_node": 300.3838,
        "meta_arg_of_pericenter": 109.7318,
        "meta_mean_anomaly": 250.3953,
        "meta_ephemeris_type": 0,
        "meta_classification_type": "U",
        "meta_norad_cat_id": 65815,
        "meta_element_set_no": 999,
        "meta_rev_at_epoch": 1296,
        "meta_bstar": 7.9752e-05,
        "meta_mean_motion_dot": 1.26e-06,
        "meta_mean_motion_ddot": 0,
        "tle_line1": "1 65815U 25219A   25361.10405927  .00000126  00000+0  79752-4 0  9991",
        "tle_line2": "2 65815  98.6603 300.3838 0000881 109.7318 250.3953 14.19908649 12966"
      },
      "geometry": {
        "type": "Point",
        "coordinates": [
          -68.47104413747897,
          46.18359926515476
        ]
      }
    }
  ]
}